{
  "type": "FeatureCollection",
  "features": [
    {
      "type": "Feature",
      "properties": {
        "norad_id": 66631,
        "name": "STARLINK-35965",
        "group": "last-30-days",
        "lat": -32.01292661629233,
        "lon": 135.29962778949732,
        "alt_km": 422.45473436924294,
        "timestamp": "2025-12-17T17:50:17.973159+00:00",
        "meta_object_name": "STARLINK-35965",
        "meta_object_id": "2025-271Q",
        "meta_epoch": "2025-12-17T00:59:14.647200",
        "meta_mean_motion": 15.49332723,
        "meta_eccentricity": 5.341e-05,
        "meta_inclination": 53.1591,
        "meta_ra_of_asc_node": 166.6099,
        "meta_arg_of_pericenter": 55.0729,
        "meta_mean_anomaly": 305.0331,
        "meta_ephemeris_type": 0,
        "meta_classification_type": "U",
        "meta_norad_cat_id": 66631,
        "meta_element_set_no": 999,
        "meta_rev_at_epoch": 487,
        "meta_bstar": 0.0010487416,
        "meta_mean_motion_dot": 0.00058364,
        "meta_mean_motion_ddot": 0,
        "tle_line1": "1 66631U 25271Q   25351.04114175  .00058364  00000+0  10487-2 0  9995",
        "tle_line2": "2 66631  53.1591 166.6099 0000534  55.0729 305.0331 15.49332723  4878"
      },
      "geometry": {
        "type": "Point",
        "coordinates": [
          135.29962778949732,
          -32.01292661629233
        ]
      }
    },
    {
      "type": "Feature",
      "properties": {
        "norad_id": 66632,
        "name": "STARLINK-35973",
        "group": "last-30-days",
        "lat": -29.90322868238116,
        "lon": 8.993237590259971,
        "alt_km": 451.3941639060704,
        "timestamp": "2025-12-17T17:50:17.973171+00:00",
        "meta_object_name": "STARLINK-35973",
        "meta_object_id": "2025-271R",
        "meta_epoch": "2025-12-17T08:00:04.999680",
        "meta_mean_motion": 15.39583165,
        "meta_eccentricity": 0.00013257,
        "meta_inclination": 53.1583,
        "meta_ra_of_asc_node": 165.3821,
        "meta_arg_of_pericenter": 102.5646,
        "meta_mean_anomaly": 2.8435,
        "meta_ephemeris_type": 0,
        "meta_classification_type": "U",
        "meta_norad_cat_id": 66632,
        "meta_element_set_no": 999,
        "meta_rev_at_epoch": 492,
        "meta_bstar": 0.0016181501,
        "meta_mean_motion_dot": 0.00064798,
        "meta_mean_motion_ddot": 0,
        "tle_line1": "1 66632U 25271R   25351.33339120  .00064798  00000+0  16182-2 0  9993",
        "tle_line2": "2 66632  53.1583 165.3821 0001325 102.5646   2.8435 15.39583165  4924"
      },
      "geometry": {
        "type": "Point",
        "coordinates": [
          8.993237590259971,
          -29.90322868238116
        ]
      }
    },
    {
      "type": "Feature",
      "properties": {
        "norad_id": 66633,
        "name": "STARLINK-35948",
        "group": "last-30-days",
        "lat": -31.212699707945937,
        "lon": 10.465390133794315,
        "alt_km": 451.45398913294684,
        "timestamp": "2025-12-17T17:50:17.973181+00:00",
        "meta_object_name": "STARLINK-35948",
        "meta_object_id": "2025-271S",
        "meta_epoch": "2025-12-17T08:00:04.999680",
        "meta_mean_motion": 15.39580567,
        "meta_eccentricity": 9.91e-05,
        "meta_inclination": 53.1583,
        "meta_ra_of_asc_node": 165.3774,
        "meta_arg_of_pericenter": 98.0767,
        "meta_mean_anomaly": 9.1671,
        "meta_ephemeris_type": 0,
        "meta_classification_type": "U",
        "meta_norad_cat_id": 66633,
        "meta_element_set_no": 999,
        "meta_rev_at_epoch": 498,
        "meta_bstar": 0.0015964591,
        "meta_mean_motion_dot": 0.00063911,
        "meta_mean_motion_ddot": 0,
        "tle_line1": "1 66633U 25271S   25351.33339120  .00063911  00000+0  15965-2 0  9998",
        "tle_line2": "2 66633  53.1583 165.3774 0000991  98.0767   9.1671 15.39580567  4984"
      },
      "geometry": {
        "type": "Point",
        "coordinates": [
          10.465390133794315,
          -31.212699707945937
        ]
      }
    },
    {
      "type": "Feature",
      "properties": {
        "norad_id": 66634,
        "name": "STARLINK-35967",
        "group": "last-30-days",
        "lat": -46.96777594917859,
        "lon": 36.819036230313095,
        "alt_km": 452.3173698818464,
        "timestamp": "2025-12-17T17:50:17.973191+00:00",
        "meta_object_name": "STARLINK-35967",
        "meta_object_id": "2025-271T",
        "meta_epoch": "2025-12-17T08:00:04.999680",
        "meta_mean_motion": 15.39581608,
        "meta_eccentricity": 6.993e-05,
        "meta_inclination": 53.1593,
        "meta_ra_of_asc_node": 165.325,
        "meta_arg_of_pericenter": 64.9727,
        "meta_mean_anomaly": 67.9542,
        "meta_ephemeris_type": 0,
        "meta_classification_type": "U",
        "meta_norad_cat_id": 66634,
        "meta_element_set_no": 999,
        "meta_rev_at_epoch": 491,
        "meta_bstar": 0.0016337357,
        "meta_mean_motion_dot": 0.00065428,
        "meta_mean_motion_ddot": 0,
        "tle_line1": "1 66634U 25271T   25351.33339120  .00065428  00000+0  16337-2 0  9998",
        "tle_line2": "2 66634  53.1593 165.3250 0000699  64.9727  67.9542 15.39581608  4917"
      },
      "geometry": {
        "type": "Point",
        "coordinates": [
          36.819036230313095,
          -46.96777594917859
        ]
      }
    },
    {
      "type": "Feature",
      "properties": {
        "norad_id": 66635,
        "name": "STARLINK-35955",
        "group": "last-30-days",
        "lat": -45.38971554356371,
        "lon": 113.82764124730376,
        "alt_km": 449.17496014148674,
        "timestamp": "2025-12-17T17:50:17.973203+00:00",
        "meta_object_name": "STARLINK-35955",
        "meta_object_id": "2025-271U",
        "meta_epoch": "2025-12-17T08:00:04.999680",
        "meta_mean_motion": 15.43027161,
        "meta_eccentricity": 0.00013771,
        "meta_inclination": 53.1594,
        "meta_ra_of_asc_node": 165.2305,
        "meta_arg_of_pericenter": 101.5108,
        "meta_mean_anomaly": 79.2785,
        "meta_ephemeris_type": 0,
        "meta_classification_type": "U",
        "meta_norad_cat_id": 66635,
        "meta_element_set_no": 999,
        "meta_rev_at_epoch": 498,
        "meta_bstar": -0.063053387,
        "meta_mean_motion_dot": -0.02499389,
        "meta_mean_motion_ddot": 0,
        "tle_line1": "1 66635U 25271U   25351.33339120 -.02499389  00000+0 -63053-1 0  9996",
        "tle_line2": "2 66635  53.1594 165.2305 0001377 101.5108  79.2785 15.43027161  4980"
      },
      "geometry": {
        "type": "Point",
        "coordinates": [
          113.82764124730376,
          -45.38971554356371
        ]
      }
    },
    {
      "type": "Feature",
      "properties": {
        "norad_id": 66636,
        "name": "STARLINK-35968",
        "group": "last-30-days",
        "lat": -53.10589253124856,
        "lon": 76.18714552339044,
        "alt_km": 452.6273883724607,
        "timestamp": "2025-12-17T17:50:17.973214+00:00",
        "meta_object_name": "STARLINK-35968",
        "meta_object_id": "2025-271V",
        "meta_epoch": "2025-12-17T08:00:04.999680",
        "meta_mean_motion": 15.39532729,
        "meta_eccentricity": 8.439e-05,
        "meta_inclination": 53.1593,
        "meta_ra_of_asc_node": 165.2741,
        "meta_arg_of_pericenter": 118.4882,
        "meta_mean_anomaly": 40.2446,
        "meta_ephemeris_type": 0,
        "meta_classification_type": "U",
        "meta_norad_cat_id": 66636,
        "meta_element_set_no": 999,
        "meta_rev_at_epoch": 498,
        "meta_bstar": 0.0020236496,
        "meta_mean_motion_dot": 0.00081177,
        "meta_mean_motion_ddot": 0,
        "tle_line1": "1 66636U 25271V   25351.33339120  .00081177  00000+0  20236-2 0  9992",
        "tle_line2": "2 66636  53.1593 165.2741 0000843 118.4882  40.2446 15.39532729  4985"
      },
      "geometry": {
        "type": "Point",
        "coordinates": [
          76.18714552339044,
          -53.10589253124856
        ]
      }
    },
    {
      "type": "Feature",
      "properties": {
        "norad_id": 66637,
        "name": "STARLINK-35953",
        "group": "last-30-days",
        "lat": -33.144501427199664,
        "lon": 133.9392487818216,
        "alt_km": 439.66127298169704,
        "timestamp": "2025-12-17T17:50:17.973224+00:00",
        "meta_object_name": "STARLINK-35953",
        "meta_object_id": "2025-271W",
        "meta_epoch": "2025-12-17T08:00:04.999680",
        "meta_mean_motion": 15.45433547,
        "meta_eccentricity": 0.00012336,
        "meta_inclination": 53.1591,
        "meta_ra_of_asc_node": 165.1986,
        "meta_arg_of_pericenter": 75.1407,
        "meta_mean_anomaly": 121.5094,
        "meta_ephemeris_type": 0,
        "meta_classification_type": "U",
        "meta_norad_cat_id": 66637,
        "meta_element_set_no": 999,
        "meta_rev_at_epoch": 498,
        "meta_bstar": -0.04544773,
        "meta_mean_motion_dot": -0.0197429,
        "meta_mean_motion_ddot": 0,
        "tle_line1": "1 66637U 25271W   25351.33339120 -.01974290  00000+0 -45448-1 0  9994",
        "tle_line2": "2 66637  53.1591 165.1986 0001233  75.1407 121.5094 15.45433547  4987"
      },
      "geometry": {
        "type": "Point",
        "coordinates": [
          133.9392487818216,
          -33.144501427199664
        ]
      }
    }
  ]
}